[{"OBJECT_NAME":"JAY-D2","OBJECT_ID":"2025-009BJ","EPOCH":"2026-03-09T21:48:00.655488","MEAN_MOTION":15.2162627,"ECCENTRICITY":0.00031453,"INCLINATION":97.3937,"RA_OF_ASC_NODE":149.1133,"ARG_OF_PERICENTER":342.3375,"MEAN_ANOMALY":17.7751,"EPHEMERIS_TYPE":0,"CLASSIFICATION_TYPE":"U","NORAD_CAT_ID":62665,"ELEMENT_SET_NO":999,"REV_AT_EPOCH":6363,"BSTAR":0.00024274507,"MEAN_MOTION_DOT":5.414e-5,"MEAN_MOTION_DDOT":0},{"OBJECT_NAME":"ZIYUAN 3-04 (ZY 3-04)","OBJECT_ID":"2025-300A","EPOCH":"2026-03-09T21:46:53.524416","MEAN_MOTION":15.21435869,"ECCENTRICITY":0.00046089,"INCLINATION":97.4787,"RA_OF_ASC_NODE":147.5221,"ARG_OF_PERICENTER":299.6571,"MEAN_ANOMALY":60.4205,"EPHEMERIS_TYPE":0,"CLASSIFICATION_TYPE":"U","NORAD_CAT_ID":67131,"ELEMENT_SET_NO":999,"REV_AT_EPOCH":1274,"BSTAR":0.00028410959,"MEAN_MOTION_DOT":6.313e-5,"MEAN_MOTION_DDOT":0}]
